SHAKUNTALA              
1 52173U 22033S   22302.19269875  .00014121  00000+0  54238-3 0  9997
2 52173  97.3825  21.9284 0011224 252.1149 169.7669 15.26496506 32063
BRO-7                   
1 52174U 22033T   22302.19869292  .00004995  00000+0  20955-3 0  9994
2 52174  97.3781  21.4906 0011831 248.5606 170.8296 15.23877235 32048
BDSAT                   
1 52175U 22033U   22301.80880394  .00013436  00000+0  52544-3 0  9997
2 52175  97.3789  21.4447 0011591 250.1376 109.8614 15.25904224 32006
SPACEBEE-130            
1 52176U 22033V   22302.20876574  .00025416  00000+0  95743-3 0  9997
2 52176  97.3728  21.6457 0005748 257.6175 102.4420 15.27060493 32040
SPACEBEE-139            
1 52177U 22033W   22302.20518549  .00025170  00000+0  96851-3 0  9991
2 52177  97.3743  21.5414 0008472 261.0345  98.9934 15.26339524 32036
NUSAT-24 (KALPANA CHAW*)
1 52178U 22033X   22302.33337737  .00008452  00000+0  32523-3 0  9994
2 52178  97.3332  21.7131 0008892 260.7494 167.5763 15.26595062 32131
SPACEBEE-129            
1 52179U 22033Y   22302.14719950  .00023806  00000+0  91968-3 0  9993
2 52179  97.3727  21.4312 0007160 264.6418  95.4003 15.26227851 32026
SPACEBEE-134            
1 52180U 22033Z   22301.71225997  .00021506  00000+0  84301-3 0  9998
2 52180  97.3718  20.9409 0007429 266.1926  93.8463 15.25761029 31972
SPACEBEE-131            
1 52181U 22033AA  22302.19928563  .00023842  00000+0  91784-3 0  9999
2 52181  97.3730  21.5208 0007280 265.7121  94.3286 15.26342955 32039
SPACEBEE-128            
1 52182U 22033AB  22301.74895799  .00017707  00000+0  68487-3 0  9991
2 52182  97.3747  21.0942 0007406 266.0762  93.9629 15.26247385 31983
SPACEBEE-133            
1 52183U 22033AC  22301.80315658  .00019999  00000+0  77067-3 0  9999
2 52183  97.3730  21.1385 0007321 266.3169  93.7232 15.26345086 31983
NUSAT-26 (M SOMERVILLE) 
1 52184U 22033AD  22302.29130426  .00010114  00000+0  43340-3 0  9999
2 52184  97.3772  21.2065 0008178 258.9415 101.0902 15.22929299 32032
SPACEBEE-132            
1 52185U 22033AE  22302.16978109  .00026420  00000+0  10040-2 0  9991
2 52185  97.3736  21.5768 0007011 279.0854  80.9592 15.26754321 32027
SPACEBEE-137            
1 52186U 22033AF  22302.20650713  .00024013  00000+0  92833-3 0  9992
2 52186  97.3732  21.5217 0007445 264.7390  95.2999 15.26200067 32034
SPACEBEE-135            
1 52187U 22033AG  22301.77542220  .00021752  00000+0  82841-3 0  9992
2 52187  97.3743  21.2067 0006989 262.9344  97.1100 15.26722919 31992
PLANTSAT                
1 52188U 22033AH  22301.76419872  .00014986  00000+0  59026-3 0  9998
2 52188  97.3778  21.2987 0004312 283.8280  76.2478 15.25694574 31991
KSF2-C                  
1 52189U 22033AJ  22302.32537278  .00016897  00000+0  66244-3 0  9996
2 52189  97.3709  21.4633 0008332 256.1361 176.4357 15.25799969 32067
