[{"OBJECT_NAME":"SHAKUNTALA","OBJECT_ID":"2022-033S","EPOCH":"2022-10-29T04:37:29.172000","MEAN_MOTION":15.26496506,"ECCENTRICITY":0.0011224,"INCLINATION":97.3825,"RA_OF_ASC_NODE":21.9284,"ARG_OF_PERICENTER":252.1149,"MEAN_ANOMALY":169.7669,"EPHEMERIS_TYPE":0,"CLASSIFICATION_TYPE":"U","NORAD_CAT_ID":52173,"ELEMENT_SET_NO":999,"REV_AT_EPOCH":3206,"BSTAR":0.00054238,"MEAN_MOTION_DOT":0.00014121,"MEAN_MOTION_DDOT":0},{"OBJECT_NAME":"BRO-7","OBJECT_ID":"2022-033T","EPOCH":"2022-10-29T04:46:07.068288","MEAN_MOTION":15.23877235,"ECCENTRICITY":0.0011831,"INCLINATION":97.3781,"RA_OF_ASC_NODE":21.4906,"ARG_OF_PERICENTER":248.5606,"MEAN_ANOMALY":170.8296,"EPHEMERIS_TYPE":0,"CLASSIFICATION_TYPE":"U","NORAD_CAT_ID":52174,"ELEMENT_SET_NO":999,"REV_AT_EPOCH":3204,"BSTAR":0.00020955,"MEAN_MOTION_DOT":4.995e-5,"MEAN_MOTION_DDOT":0},{"OBJECT_NAME":"BDSAT","OBJECT_ID":"2022-033U","EPOCH":"2022-10-28T19:24:40.660416","MEAN_MOTION":15.25904224,"ECCENTRICITY":0.0011591,"INCLINATION":97.3789,"RA_OF_ASC_NODE":21.4447,"ARG_OF_PERICENTER":250.1376,"MEAN_ANOMALY":109.8614,"EPHEMERIS_TYPE":0,"CLASSIFICATION_TYPE":"U","NORAD_CAT_ID":52175,"ELEMENT_SET_NO":999,"REV_AT_EPOCH":3200,"BSTAR":0.00052544,"MEAN_MOTION_DOT":0.00013436,"MEAN_MOTION_DDOT":0},{"OBJECT_NAME":"SPACEBEE-130","OBJECT_ID":"2022-033V","EPOCH":"2022-10-29T05:00:37.359936","MEAN_MOTION":15.27060493,"ECCENTRICITY":0.0005748,"INCLINATION":97.3728,"RA_OF_ASC_NODE":21.6457,"ARG_OF_PERICENTER":257.6175,"MEAN_ANOMALY":102.442,"EPHEMERIS_TYPE":0,"CLASSIFICATION_TYPE":"U","NORAD_CAT_ID":52176,"ELEMENT_SET_NO":999,"REV_AT_EPOCH":3204,"BSTAR":0.00095743,"MEAN_MOTION_DOT":0.00025416,"MEAN_MOTION_DDOT":0},{"OBJECT_NAME":"SPACEBEE-139","OBJECT_ID":"2022-033W","EPOCH":"2022-10-29T04:55:28.026336","MEAN_MOTION":15.26339524,"ECCENTRICITY":0.0008472,"INCLINATION":97.3743,"RA_OF_ASC_NODE":21.5414,"ARG_OF_PERICENTER":261.0345,"MEAN_ANOMALY":98.9934,"EPHEMERIS_TYPE":0,"CLASSIFICATION_TYPE":"U","NORAD_CAT_ID":52177,"ELEMENT_SET_NO":999,"REV_AT_EPOCH":3203,"BSTAR":0.00096851,"MEAN_MOTION_DOT":0.0002517,"MEAN_MOTION_DDOT":0},{"OBJECT_NAME":"NUSAT-24 (KALPANA CHAWLA)","OBJECT_ID":"2022-033X","EPOCH":"2022-10-29T08:00:03.804768","MEAN_MOTION":15.26595062,"ECCENTRICITY":0.0008892,"INCLINATION":97.3332,"RA_OF_ASC_NODE":21.7131,"ARG_OF_PERICENTER":260.7494,"MEAN_ANOMALY":167.5763,"EPHEMERIS_TYPE":0,"CLASSIFICATION_TYPE":"U","NORAD_CAT_ID":52178,"ELEMENT_SET_NO":999,"REV_AT_EPOCH":3213,"BSTAR":0.00032523,"MEAN_MOTION_DOT":8.452e-5,"MEAN_MOTION_DDOT":0},{"OBJECT_NAME":"SPACEBEE-129","OBJECT_ID":"2022-033Y","EPOCH":"2022-10-29T03:31:58.036800","MEAN_MOTION":15.26227851,"ECCENTRICITY":0.000716,"INCLINATION":97.3727,"RA_OF_ASC_NODE":21.4312,"ARG_OF_PERICENTER":264.6418,"MEAN_ANOMALY":95.4003,"EPHEMERIS_TYPE":0,"CLASSIFICATION_TYPE":"U","NORAD_CAT_ID":52179,"ELEMENT_SET_NO":999,"REV_AT_EPOCH":3202,"BSTAR":0.00091968,"MEAN_MOTION_DOT":0.00023806,"MEAN_MOTION_DDOT":0},{"OBJECT_NAME":"SPACEBEE-134","OBJECT_ID":"2022-033Z","EPOCH":"2022-10-28T17:05:39.261408","MEAN_MOTION":15.25761029,"ECCENTRICITY":0.0007429,"INCLINATION":97.3718,"RA_OF_ASC_NODE":20.9409,"ARG_OF_PERICENTER":266.1926,"MEAN_ANOMALY":93.8463,"EPHEMERIS_TYPE":0,"CLASSIFICATION_TYPE":"U","NORAD_CAT_ID":52180,"ELEMENT_SET_NO":999,"REV_AT_EPOCH":3197,"BSTAR":0.00084301,"MEAN_MOTION_DOT":0.00021506,"MEAN_MOTION_DDOT":0},{"OBJECT_NAME":"SPACEBEE-131","OBJECT_ID":"2022-033AA","EPOCH":"2022-10-29T04:46:58.278432","MEAN_MOTION":15.26342955,"ECCENTRICITY":0.000728,"INCLINATION":97.373,"RA_OF_ASC_NODE":21.5208,"ARG_OF_PERICENTER":265.7121,"MEAN_ANOMALY":94.3286,"EPHEMERIS_TYPE":0,"CLASSIFICATION_TYPE":"U","NORAD_CAT_ID":52181,"ELEMENT_SET_NO":999,"REV_AT_EPOCH":3203,"BSTAR":0.00091784,"MEAN_MOTION_DOT":0.00023842,"MEAN_MOTION_DDOT":0},{"OBJECT_NAME":"SPACEBEE-128","OBJECT_ID":"2022-033AB","EPOCH":"2022-10-28T17:58:29.970336","MEAN_MOTION":15.26247385,"ECCENTRICITY":0.0007406,"INCLINATION":97.3747,"RA_OF_ASC_NODE":21.0942,"ARG_OF_PERICENTER":266.0762,"MEAN_ANOMALY":93.9629,"EPHEMERIS_TYPE":0,"CLASSIFICATION_TYPE":"U","NORAD_CAT_ID":52182,"ELEMENT_SET_NO":999,"REV_AT_EPOCH":3198,"BSTAR":0.00068487,"MEAN_MOTION_DOT":0.00017707,"MEAN_MOTION_DDOT":0},{"OBJECT_NAME":"SPACEBEE-133","OBJECT_ID":"2022-033AC","EPOCH":"2022-10-28T19:16:32.728512","MEAN_MOTION":15.26345086,"ECCENTRICITY":0.0007321,"INCLINATION":97.373,"RA_OF_ASC_NODE":21.1385,"ARG_OF_PERICENTER":266.3169,"MEAN_ANOMALY":93.7232,"EPHEMERIS_TYPE":0,"CLASSIFICATION_TYPE":"U","NORAD_CAT_ID":52183,"ELEMENT_SET_NO":999,"REV_AT_EPOCH":3198,"BSTAR":0.00077067,"MEAN_MOTION_DOT":0.00019999,"MEAN_MOTION_DDOT":0},{"OBJECT_NAME":"NUSAT-26 (M SOMERVILLE)","OBJECT_ID":"2022-033AD","EPOCH":"2022-10-29T06:59:28.688064","MEAN_MOTION":15.22929299,"ECCENTRICITY":0.0008178,"INCLINATION":97.3772,"RA_OF_ASC_NODE":21.2065,"ARG_OF_PERICENTER":258.9415,"MEAN_ANOMALY":101.0902,"EPHEMERIS_TYPE":0,"CLASSIFICATION_TYPE":"U","NORAD_CAT_ID":52184,"ELEMENT_SET_NO":999,"REV_AT_EPOCH":3203,"BSTAR":0.0004334,"MEAN_MOTION_DOT":0.00010114,"MEAN_MOTION_DDOT":0},{"OBJECT_NAME":"SPACEBEE-132","OBJECT_ID":"2022-033AE","EPOCH":"2022-10-29T04:04:29.086176","MEAN_MOTION":15.26754321,"ECCENTRICITY":0.0007011,"INCLINATION":97.3736,"RA_OF_ASC_NODE":21.5768,"ARG_OF_PERICENTER":279.0854,"MEAN_ANOMALY":80.9592,"EPHEMERIS_TYPE":0,"CLASSIFICATION_TYPE":"U","NORAD_CAT_ID":52185,"ELEMENT_SET_NO":999,"REV_AT_EPOCH":3202,"BSTAR":0.001004,"MEAN_MOTION_DOT":0.0002642,"MEAN_MOTION_DDOT":0},{"OBJECT_NAME":"SPACEBEE-137","OBJECT_ID":"2022-033AF","EPOCH":"2022-10-29T04:57:22.216032","MEAN_MOTION":15.26200067,"ECCENTRICITY":0.0007445,"INCLINATION":97.3732,"RA_OF_ASC_NODE":21.5217,"ARG_OF_PERICENTER":264.739,"MEAN_ANOMALY":95.2999,"EPHEMERIS_TYPE":0,"CLASSIFICATION_TYPE":"U","NORAD_CAT_ID":52186,"ELEMENT_SET_NO":999,"REV_AT_EPOCH":3203,"BSTAR":0.00092833,"MEAN_MOTION_DOT":0.00024013,"MEAN_MOTION_DDOT":0},{"OBJECT_NAME":"SPACEBEE-135","OBJECT_ID":"2022-033AG","EPOCH":"2022-10-28T18:36:36.478080","MEAN_MOTION":15.26722919,"ECCENTRICITY":0.0006989,"INCLINATION":97.3743,"RA_OF_ASC_NODE":21.2067,"ARG_OF_PERICENTER":262.9344,"MEAN_ANOMALY":97.11,"EPHEMERIS_TYPE":0,"CLASSIFICATION_TYPE":"U","NORAD_CAT_ID":52187,"ELEMENT_SET_NO":999,"REV_AT_EPOCH":3199,"BSTAR":0.00082841,"MEAN_MOTION_DOT":0.00021752,"MEAN_MOTION_DDOT":0},{"OBJECT_NAME":"PLANTSAT","OBJECT_ID":"2022-033AH","EPOCH":"2022-10-28T18:20:26.769408","MEAN_MOTION":15.25694574,"ECCENTRICITY":0.0004312,"INCLINATION":97.3778,"RA_OF_ASC_NODE":21.2987,"ARG_OF_PERICENTER":283.828,"MEAN_ANOMALY":76.2478,"EPHEMERIS_TYPE":0,"CLASSIFICATION_TYPE":"U","NORAD_CAT_ID":52188,"ELEMENT_SET_NO":999,"REV_AT_EPOCH":3199,"BSTAR":0.00059026,"MEAN_MOTION_DOT":0.00014986,"MEAN_MOTION_DDOT":0},{"OBJECT_NAME":"KSF2-C","OBJECT_ID":"2022-033AJ","EPOCH":"2022-10-29T07:48:32.208192","MEAN_MOTION":15.25799969,"ECCENTRICITY":0.0008332,"INCLINATION":97.3709,"RA_OF_ASC_NODE":21.4633,"ARG_OF_PERICENTER":256.1361,"MEAN_ANOMALY":176.4357,"EPHEMERIS_TYPE":0,"CLASSIFICATION_TYPE":"U","NORAD_CAT_ID":52189,"ELEMENT_SET_NO":999,"REV_AT_EPOCH":3206,"BSTAR":0.00066244,"MEAN_MOTION_DOT":0.00016897,"MEAN_MOTION_DDOT":0}]
